[{"OBJECT_NAME":"STARLINK-3145","OBJECT_ID":"2021-104AZ","EPOCH":"2026-03-09T17:27:41.999616","MEAN_MOTION":15.08837908,"ECCENTRICITY":0.00011945,"INCLINATION":53.2173,"RA_OF_ASC_NODE":218.9527,"ARG_OF_PERICENTER":93.792,"MEAN_ANOMALY":266.3209,"EPHEMERIS_TYPE":0,"CLASSIFICATION_TYPE":"U","NORAD_CAT_ID":49455,"ELEMENT_SET_NO":999,"REV_AT_EPOCH":23878,"BSTAR":6.8063315e-5,"MEAN_MOTION_DOT":7.95e-6,"MEAN_MOTION_DDOT":0},{"OBJECT_NAME":"ICON","OBJECT_ID":"2019-068A","EPOCH":"2026-03-09T22:35:01.599072","MEAN_MOTION":15.06276737,"ECCENTRICITY":0.00134076,"INCLINATION":26.9847,"RA_OF_ASC_NODE":325.9297,"ARG_OF_PERICENTER":187.0145,"MEAN_ANOMALY":173.0229,"EPHEMERIS_TYPE":0,"CLASSIFICATION_TYPE":"U","NORAD_CAT_ID":44628,"ELEMENT_SET_NO":999,"REV_AT_EPOCH":35105,"BSTAR":0.00030799545,"MEAN_MOTION_DOT":4.879e-5,"MEAN_MOTION_DDOT":0}]
